{
    "links": {
        "self": "http://www.neowsapp.com/rest/v1/neo/54054683?api_key=iIulBulltgU6a56xZRHN4H3l9WmuAYTsLGpBGhQ2"
    },
    "id": "54054683",
    "neo_reference_id": "54054683",
    "name": "(2020 SR5)",
    "designation": "2020 SR5",
    "nasa_jpl_url": "http://ssd.jpl.nasa.gov/sbdb.cgi?sstr=54054683",
    "absolute_magnitude_h": 25.393,
    "estimated_diameter": {
        "kilometers": {
            "estimated_diameter_min": 0.0221796647,
            "estimated_diameter_max": 0.049595238
        },
        "meters": {
            "estimated_diameter_min": 22.1796647087,
            "estimated_diameter_max": 49.5952380067
        },
        "miles": {
            "estimated_diameter_min": 0.0137818004,
            "estimated_diameter_max": 0.0308170426
        },
        "feet": {
            "estimated_diameter_min": 72.7679311628,
            "estimated_diameter_max": 162.714040662
        }
    },
    "is_potentially_hazardous_asteroid": false,
    "close_approach_data": [
        {
            "close_approach_date": "2020-09-20",
            "close_approach_date_full": "2020-Sep-20 07:38",
            "epoch_date_close_approach": 1600587480000,
            "relative_velocity": {
                "kilometers_per_second": "6.8045543839",
                "kilometers_per_hour": "24496.3957820868",
                "miles_per_hour": "15221.107701375"
            },
            "miss_distance": {
                "astronomical": "0.0743824419",
                "lunar": "28.9347698991",
                "kilometers": "11127454.873638753",
                "miles": "6914279.8390626714"
            },
            "orbiting_body": "Earth"
        }
    ],
    "orbital_data": {
        "orbit_id": "2",
        "orbit_determination_date": "2020-10-08 06:55:41",
        "first_observation_date": "2020-09-25",
        "last_observation_date": "2020-10-08",
        "data_arc_in_days": 13,
        "observations_used": 21,
        "orbit_uncertainty": "8",
        "minimum_orbit_intersection": ".0721687",
        "jupiter_tisserand_invariant": "3.179",
        "epoch_osculation": "2459119.5",
        "eccentricity": ".5823240945563576",
        "semi_major_axis": "2.546700265027809",
        "inclination": "3.325191279153448",
        "ascending_node_longitude": "42.37636416333302",
        "orbital_period": "1484.44864324865",
        "perihelion_distance": "1.063695339089054",
        "perihelion_argument": "318.4434134940174",
        "aphelion_distance": "4.029705190966563",
        "perihelion_time": "2459115.066836265305",
        "mean_anomaly": "1.075105529415661",
        "mean_motion": ".2425142840995536",
        "equinox": "J2000",
        "orbit_class": {
            "orbit_class_type": "AMO",
            "orbit_class_description": "Near-Earth asteroid orbits similar to that of 1221 Amor",
            "orbit_class_range": "1.017 AU < q (perihelion) < 1.3 AU"
        }
    },
    "is_sentry_object": false
}